MALLIGYONG-1            
1 58400U 23179A   24272.95926647  .00010216  00000+0  46396-3 0  9994
2 58400  97.3865 158.0095 0010348  74.1527 286.0849 15.20921864 47508
